IRIDIUM 150             
1 43257U 18030J   25124.86277740  .00000442  00000+0  15066-3 0  9998
2 43257  86.3927 101.1810 0002436  93.9009 266.2465 14.34219156371632
IRIDIUM 143             
1 43258U 18030K   25124.84374248  .00000133  00000+0  40503-4 0  9990
2 43258  86.3930 101.2656 0002641  96.4687 263.6810 14.34218537371563
IRIDIUM 161             
1 43478U 18047C   25124.81034946  .00000521  00000+0  14899-3 0  9996
2 43478  86.4471 259.0676 0002078  92.0692 268.0747 14.43286430366237
IRIDIUM 152             
1 43479U 18047D   25124.81645467  .00000243  00000+0  79534-4 0  9992
2 43479  86.3944 258.9255 0002031  95.3821 264.7606 14.34216368363958
IRIDIUM 147             
1 43480U 18047E   25124.82280304  .00000202  00000+0  64913-4 0  9990
2 43480  86.3947 258.9208 0002157  90.3754 269.7689 14.34216836363956
IRIDIUM 110             
1 43481U 18047F   25124.89891344  .00000195  00000+0  62477-4 0  9994
2 43481  86.3949 258.9703 0001768  86.3870 273.7528 14.34218359363959
IRIDIUM 162             
1 43482U 18047G   25124.80405311  .00000662  00000+0  19085-3 0  9996
2 43482  86.4470 258.9661 0001899  95.4995 264.6422 14.43278747366229
IRIDIUM 160             
1 43569U 18061A   25124.77498264  .00000024  00000+0  15808-5 0  9996
2 43569  86.4003 227.4018 0002031  90.8663 269.2766 14.34217588354836
